[
    {
        "CCSDS_OMM_VERS": "3.0",
        "COMMENT": "GENERATED VIA SPACE-TRACK.ORG API",
        "CREATION_DATE": "2025-05-02T02:33:21",
        "ORIGINATOR": "18 SPCS",
        "OBJECT_NAME": "BEIDOU 3M17",
        "OBJECT_ID": "2018-093A",
        "CENTER_NAME": "EARTH",
        "REF_FRAME": "TEME",
        "TIME_SYSTEM": "UTC",
        "MEAN_ELEMENT_THEORY": "SGP4",
        "EPOCH": "2025-04-30T09:22:24.765024",
        "MEAN_MOTION": "1.86228279",
        "ECCENTRICITY": "0.00089090",
        "INCLINATION": "54.1844",
        "RA_OF_ASC_NODE": "196.3010",
        "ARG_OF_PERICENTER": "284.8582",
        "MEAN_ANOMALY": "75.1141",
        "EPHEMERIS_TYPE": "0",
        "CLASSIFICATION_TYPE": "U",
        "NORAD_CAT_ID": "43706",
        "ELEMENT_SET_NO": "999",
        "REV_AT_EPOCH": "4385",
        "BSTAR": "0.00000000000000",
        "MEAN_MOTION_DOT": "0.00000024",
        "MEAN_MOTION_DDOT": "0.0000000000000",
        "SEMIMAJOR_AXIS": "27906.460",
        "PERIOD": "773.245",
        "APOAPSIS": "21553.187",
        "PERIAPSIS": "21503.464",
        "OBJECT_TYPE": "PAYLOAD",
        "RCS_SIZE": "LARGE",
        "COUNTRY_CODE": "PRC",
        "LAUNCH_DATE": "2018-11-18",
        "SITE": "XSC",
        "DECAY_DATE": null,
        "FILE": "4716572",
        "GP_ID": "286610890",
        "TLE_LINE0": "0 BEIDOU 3M17",
        "TLE_LINE1": "1 43706U 18093A   25120.39056441  .00000024  00000-0  00000-0 0  9999",
        "TLE_LINE2": "2 43706  54.1844 196.3010 0008909 284.8582  75.1141  1.86228279 43855"
    }
]